{
  "type": "FeatureCollection",
  "metadata": {
    "primary_aoi": "sayariy_parcela",
    "primary_aoi_note": "The Sayariy NGO parcel is the operational AOI — that's where the wells and the maracuyá/huertos are. The 5 community polygons below are coarse 2.78x2.78 km bounding boxes for regional context, not parcel-level precision. Replace with NGO-provided chacra polygons when available.",
    "wells_in_primary_aoi": ["pozo1_asr", "pozo2_asr"]
  },
  "features": [
    {
      "type": "Feature",
      "properties": {
        "id": "sayariy_parcela",
        "name": "Sayariy (parcela)",
        "district": "Cayaltí",
        "province": "Chiclayo",
        "region": "Lambayeque",
        "population_approx": 100,
        "main_crops": ["maracuya", "huertos_mixed", "naranja", "mango", "palta", "papaya"],
        "water_source": "well",
        "area_ha": 13,
        "is_primary_aoi": true,
        "geometry_source": "Approximate 360x360m square centered on Pozo 1 (Alarcón 2021 UTM). Replace with NGO-provided per-chacra polygons when available."
      },
      "geometry": {
        "type": "Polygon",
        "coordinates": [[
          [-79.5180, -6.9145],
          [-79.5148, -6.9145],
          [-79.5148, -6.9177],
          [-79.5180, -6.9177],
          [-79.5180, -6.9145]
        ]]
      }
    },
    {
      "type": "Feature",
      "properties": {
        "id": "cajalti",
        "name": "Cayaltí",
        "district": "Cayaltí",
        "province": "Chiclayo",
        "region": "Lambayeque",
        "population_approx": 12000,
        "main_crops": ["rice", "sugarcane"],
        "water_source": "canal"
      },
      "geometry": {
        "type": "Polygon",
        "coordinates": [[
          [-79.5295, -6.8720],
          [-79.5045, -6.8720],
          [-79.5045, -6.8970],
          [-79.5295, -6.8970],
          [-79.5295, -6.8720]
        ]]
      }
    },
    {
      "type": "Feature",
      "properties": {
        "id": "nueva_libertad",
        "name": "Nueva Libertad",
        "district": "Cayaltí",
        "province": "Chiclayo",
        "region": "Lambayeque",
        "population_approx": 800,
        "main_crops": ["rice", "maize"],
        "water_source": "well + canal"
      },
      "geometry": {
        "type": "Polygon",
        "coordinates": [[
          [-79.5605, -6.9025],
          [-79.5355, -6.9025],
          [-79.5355, -6.9275],
          [-79.5605, -6.9275],
          [-79.5605, -6.9025]
        ]]
      }
    },
    {
      "type": "Feature",
      "properties": {
        "id": "victor_raul",
        "name": "Víctor Raúl",
        "district": "Cayaltí",
        "province": "Chiclayo",
        "region": "Lambayeque",
        "population_approx": 1200,
        "main_crops": ["rice", "vegetables"],
        "water_source": "canal"
      },
      "geometry": {
        "type": "Polygon",
        "coordinates": [[
          [-79.5025, -6.8475],
          [-79.4775, -6.8475],
          [-79.4775, -6.8725],
          [-79.5025, -6.8725],
          [-79.5025, -6.8475]
        ]]
      }
    },
    {
      "type": "Feature",
      "properties": {
        "id": "reque",
        "name": "Reque",
        "district": "Reque",
        "province": "Chiclayo",
        "region": "Lambayeque",
        "population_approx": 14000,
        "main_crops": ["rice", "sugarcane"],
        "water_source": "river + canal"
      },
      "geometry": {
        "type": "Polygon",
        "coordinates": [[
          [-79.8412, -6.8629],
          [-79.8162, -6.8629],
          [-79.8162, -6.8879],
          [-79.8412, -6.8879],
          [-79.8412, -6.8629]
        ]]
      }
    },
    {
      "type": "Feature",
      "properties": {
        "id": "monsefu",
        "name": "Monsefú",
        "district": "Monsefú",
        "province": "Chiclayo",
        "region": "Lambayeque",
        "population_approx": 30000,
        "main_crops": ["rice", "flowers", "vegetables"],
        "water_source": "river"
      },
      "geometry": {
        "type": "Polygon",
        "coordinates": [[
          [-79.9000, -6.8764],
          [-79.8750, -6.8764],
          [-79.8750, -6.9014],
          [-79.9000, -6.9014],
          [-79.9000, -6.8764]
        ]]
      }
    }
  ]
}
